"devicedb_id","hubelean_id","location_name","location_address","longitude","latitude","TotalNbOfConnectors","ConnectorType"
"10355","UAE-HBN-CCL217","BUR DUBAI-Dubai Police Academy - Gen. Dept. of Training","Dubai, United Arab Emirates","55.1952649","25.124036","2","62196-2 (Three Phase) , 62196-2 (Three Phase)"
"10356","UAE-HBN-CCL216","DEIRA-ENOC Petrol Station (1064) Warsan 3  E611","ENOC, Dubai, United Arab Emirates","55.478","25.151","3","Combo CCS , ChaDeMo , 62196-2 (Three Phase)"
"10357","UAE-HBN-CCL218","DEIRA-Dubai Police, Muraqqabat Police Station","Dubai, United Arab Emirates","55.3292222","25.2699722","2","62196-2 (Three Phase) , 62196-2 (Three Phase)"
"10358","UAE-HBN-CCL219","DEIRA-Dubai Police, Qusais Police Station","Dubai, United Arab Emirates","55.3913888","25.2648888","2","62196-2 (Three Phase) , 62196-2 (Three Phase)"
"10359","UAE-HBN-CCL220","BUR DUBAI-City Walk-1","MEERAS, Dubai, United Arab Emirates","55.258","25.211","2","62196-2 (Three Phase) , 62196-2 (Three Phase)"
"10360","UAE-HBN-CCL3","BUR DUBAI-Al Quoz Sustainable Building 04","DEWA, Dubai, United Arab Emirates","55.232","25.154","2","62196-2 (Three Phase) , 62196-2 (Three Phase)"
"10361","UAE-HBN-CCL221","DEIRA-ADNOC Petrol Station, Umm Eselay","Dubai, United Arab Emirates","55.56","24.863","3","Combo CCS , ChaDeMo , 62196-2 (Three Phase)"
"10362","UAE-HBN-CCL222","J.ALI-Dubai Police, Jebel Ali Police Station","Dubai, United Arab Emirates","55.148","25.003","2","62196-2 (Three Phase) , 62196-2 (Three Phase)"
"10363","UAE-HBN-CCL223","BUR DUBAI-Dubai Police Officers Club, Jaddaf","Dubai, United Arab Emirates","55.3260196","25.2240413","2","62196-2 (Three Phase) , 62196-2 (Three Phase)"
"10364","UAE-HBN-CCL224","DEIRA-Dubai Courts, Rowaiyah-3","Dubai, United Arab Emirates","55.503","25.15","2","62196-2 (Three Phase) , 62196-2 (Three Phase)"
"10365","UAE-HBN-CCL225","DEIRA-Mai Dubai Head Quartres - Private","Al Yalais-5, Dubai, United Arab Emirates","55.27443","25.00284","2","62196-2 (Three Phase) , 62196-2 (Three Phase)"
"10366","UAE-HBN-CCL226","BUR DUBAI-Times Square Center,Basement Parking-276","Al Quoz Ind-1, Dubai, United Arab Emirates","55.2198888","25.1397777","1","62196-2 (Three Phase)"
"10367","UAE-HBN-CCL227","BUR DUBAI -Times Square Center,Basement Parking-277","Al Quoz Ind-1, Dubai, United Arab Emirates","55.22","25.14","1","62196-2 (Three Phase)"
"10368","UAE-HBN-CCL228","BUR DUBAI-Times Square Center,Basement Parking-278","Al Quoz Ind-1, Dubai, United Arab Emirates","55.22","25.14","1","62196-2 (Three Phase)"
"10373","UAE-HBN-CCL233","BUR DUBAI Police, Gen. Dept. of Protective Security & Emergency (Left side)","Dubai, United Arab Emirates","55.256","25.209","2","62196-2 (Three Phase) , 62196-2 (Three Phase)"
"10374","UAE-HBN-CCL234","BUR DUBAI-Dubai Police, Gen. Dept. of Protective Security & Emergency  (Right Side)","Dubai, United Arab Emirates","55.256","25.209","2","62196-2 (Three Phase) , 62196-2 (Three Phase)"
"10379","UAE-HBN-CCL239","J.ALI-Emicool - Plant 7","Motor City, Dubai, United Arab Emirates","55.239","25.042","2","62196-2 (Three Phase) , 62196-2 (Three Phase)"
"10380","UAE-HBN-CCL240","J.ALI-Emicool - Plant 1 - Corporate Office","Greens-DIP, Dubai, United Arab Emirates","55.16","25.009","2","62196-2 (Three Phase) , 62196-2 (Three Phase)"
"10381","UAE-HBN-CCL241","DEIRA-Dubai Police HQ-Decision Support Area -01","Dubai, United Arab Emirates","55.356","25.277","1","62196-2 (Three Phase)"
"10382","UAE-HBN-CCL242","DEIRA-Dubai Police HQ-Decision Support Area -02 - Dubai","Dubai, United Arab Emirates","55.356","25.277","1","62196-2 (Three Phase)"
"10383","UAE-HBN-CCL243","DEIRA-Dubai Police HQ-Decision Support Area -03","Dubai, United Arab Emirates","55.356","25.277","1","62196-2 (Three Phase)"
"10384","UAE-HBN-CCL244","DEIRA-Dubai Police HQ-Museum Area -01","25.27843, 55.35578, Dubai, United Arab Emirates","55.356","25.278","1","62196-2 (Three Phase)"
"10385","UAE-HBN-CCL245","DEIRA-Dubai Police HQ-Museum Area -02","25.278426, 55.355781, Dubai, United Arab Emirates","55.356","25.278","1","62196-2 (Three Phase)"
"10386","UAE-HBN-CCL246","DEIRA-Dubai Police HQ-Museum Area -03","25.278417, 55.355795, Dubai, United Arab Emirates","55.356","25.278","1","62196-2 (Three Phase)"
"10387","UAE-HBN-CCL247","BUR DUBAI-Dubai Police, Bur Dubai Police Station","Jafiliya, Dubai, United Arab Emirates","55.289","25.232","2","62196-2 (Three Phase) , 62196-2 (Three Phase)"
"10388","UAE-HBN-CCL248","BUR DUBAI-Mohammed bin Rashid Library,Front Parking","Jedaf, Dubai, United Arab Emirates","55.3431944","25.2208611","2","62196-2 (Three Phase) , 62196-2 (Three Phase)"
"10389","UAE-HBN-CCL249","BUR DUBAI-Mohammed bin Rashid Library,Basement Parking","Jedaf, Dubai, United Arab Emirates","55.3434331","25.2215808","2","62196-2 (Three Phase) , 62196-2 (Three Phase)"
"10390","UAE-HBN-CCL250","BUR DUBAI-Al Maktoum Stadium","Oud Metha, Dubai, United Arab Emirates","55.3118364","25.2395572","2","62196-2 (Three Phase) , 62196-2 (Three Phase)"
"10391","UAE-HBN-CCL251","DEIRA-Dubai Police HQ-Parking Area - 01","Dubai, United Arab Emirates","55.353","25.274","1","62196-2 (Three Phase)"
"10394","UAE-HBN-CCL254","BUR DUBAI-Central Park Tower,Visitors Parking","DIFC, Dubai, United Arab Emirates","55.27458","25.20555","2","62196-2 (Three Phase) , 62196-2 (Three Phase)"
"10395","UAE-HBN-CCL255","BUR DUBAI-Emarat Al Youm","Al Wasl, Dubai, United Arab Emirates","55.253","25.187","2","62196-2 (Three Phase) , 62196-2 (Three Phase)"
"10396","UAE-HBN-CCL256","J.ALI-Emicool - Plant 3","Greens-DIP, Dubai, United Arab Emirates","55.163","24.99","2","62196-2 (Three Phase) , 62196-2 (Three Phase)"
"10397","UAE-HBN-CCL257","J-ALI-Marina Arcade Tower","Dubai, United Arab Emirates","55.15","25.09","2","62196-2 (Three Phase) , 62196-2 (Three Phase)"
"10398","UAE-HBN-CCL202","BUR DUBAI-Gate Avenue-Parking CD1 - 02","DIFC, Dubai, United Arab Emirates","55.278926","25.211656","2","62196-2 (Three Phase) , 62196-2 (Three Phase)"
"10399","UAE-HBN-CCL258","J.ALI-Festival Plaza,IKEA Parking-1","Jebel Ali Village, United Arab Emirates","55.107","25.029","1","62196-2 (Three Phase)"
"10400","UAE-HBN-CCL259","J.ALI-Festival Plaza,IKEA Parking-2","Jebel Ali Village, Dubai, United Arab Emirates","55.1064492","25.0291942","1","62196-2 (Three Phase)"
"10401","UAE-HBN-CCL260","J.ALI-Festival Plaza,IKEA Parking-3","Jebel Ali Village, Dubai, United Arab Emirates","55.1064722","25.0291666","1","62196-2 (Three Phase)"
"10402","UAE-HBN-CCL261","J.ALI-Festival Plaza,IKEA Parking-4","Jebel Ali Village, Dubai, United Arab Emirates","55.1065","25.0291666","1","62196-2 (Three Phase)"
"10403","UAE-HBN-CCL262","J.ALI-Festival Plaza,IKEA Parking-5","Jebel Ali Village, Dubai, United Arab Emirates","55.1065277","25.0291666","1","62196-2 (Three Phase)"
"10404","UAE-HBN-CCL263","J.ALI-Festival Plaza,IKEA Parking-6","Jebel Ali Village, Dubai, United Arab Emirates","55.107","25.029","1","62196-2 (Three Phase)"
"10405","UAE-HBN-CCL264","J.ALI-Festival Plaza,Lulu Parking-1","Jebel Ali Village, Dubai, United Arab Emirates","55.108","25.03","1","62196-2 (Three Phase)"
"10406","UAE-HBN-CCL265","J.ALI-Festival Plaza,Lulu Parking-2","Jebel Ali Village, Dubai, United Arab Emirates","55.1078888","25.0298888","1","62196-2 (Three Phase)"
"10407","UAE-HBN-CCL266","J.ALI--Festival Plaza,Mall Parking-1","Jebel Ali Village, Dubai, United Arab Emirates","55.10775","25.0298055","1","62196-2 (Three Phase)"
"10408","UAE-HBN-CCL267","J.ALI-Festival Plaza,Mall Parking-2","Jebel Ali Village, Dubai, United Arab Emirates","55.1076944","25.0298055","1","62196-2 (Three Phase)"
"10409","UAE-HBN-CCL268","J.ALI-Festival Plaza,Entertaintment Parking-1","Jebel Ali Village, Dubai, United Arab Emirates","55.1077777","25.0284444","1","62196-2 (Three Phase)"
"10410","UAE-HBN-CCL269","J.ALI-Festival Plaza,Entertaintment Parking-2","Jebel Ali Village, Dubai, United Arab Emirates","55.1078333","25.0284444","1","62196-2 (Three Phase)"
"10411","UAE-HBN-CCL270","BUR DUBAI-Grand Cosmopolitan Hotel","17 A Street, Al Barsha 1,  Dubai, United Arab Emirates","55.193","25.114","2","62196-2 (Three Phase) , 62196-2 (Three Phase)"
"10412","UAE-HBN-CCL7","DEIRA-Distribution Power Building-01","DEWA, Ruwaiya, United Arab Emirates","55.49995","25.156679","2","62196-2 (Three Phase) , 62196-2 (Three Phase)"
"10413","UAE-HBN-CCL13","DEIRA","DEWA-Distribution Power  Building-02, Ruwaiya, United Arab Emirates","55.5","25.156","2","62196-2 (Three Phase) , 62196-2 (Three Phase)"
"10414","UAE-HBN-CCL271","J.ALI-Al Wasl Gate Villas","Jebel Ali Village, Dubai, United Arab Emirates","55.111","25.025","2","62196-2 (Three Phase) , 62196-2 (Three Phase)"
"10415","UAE-HBN-CCL11","DEIRA-B. Naher CS","DEWA, Dubai, United Arab Emirates","55.316","25.275","2","62196-2 (Three Phase) , 62196-2 (Three Phase)"
"10416","UAE-HBN-CCL9","J.ALI-Jabel Ali Industries Customer Service Center 02","DEWA, United Arab Emirates","55.105","24.997","2","62196-2 (Three Phase) , 62196-2 (Three Phase)"
"10417","UAE-HBN-CCL14","DEIRA","DEWA-Solar Park  3, United Arab Emirates","55.369","24.768","2","62196-2 (Three Phase) , 62196-2 (Three Phase)"
"10418","UAE-HBN-CCL272","J.ALI-Al Wasl Gate","Jebel Ali Village, Dubai, United Arab Emirates","55.103","25.024","2","62196-2 (Three Phase) , 62196-2 (Three Phase)"
"10419","UAE-HBN-CCL273","BUR DUBAI-Wasl Kifaf Development Ph1, Tower-2, Basement1, Parking-16","Dubai, United Arab Emirates","55.295","25.234","1","62196-2 (Three Phase)"
"10420","UAE-HBN-CCL274","BUR DUBAI-Wasl Kifaf Development Ph1, Tower-3, Basement1, Parking-19","Dubai, United Arab Emirates","55.294","25.234","1","62196-2 (Three Phase)"
"10421","UAE-HBN-CCL276","DEIRA-Dewa Well Field Office-01 (Left Side)","Al Aweer, United Arab Emirates","55.554","25.176","2","62196-2 (Three Phase) , 62196-2 (Three Phase)"
"10422","UAE-HBN-CCL277","DEIRA-Dewa Well Field Office-02 (Right Side)","Al Aweer, United Arab Emirates","55.554","25.176","2","62196-2 (Three Phase) , 62196-2 (Three Phase)"
"10423","UAE-HBN-CCL294","J.ALI.ENOC Petrol Station (2020) Expo Site 02","ENOC, Dubai, United Arab Emirates","55.159","24.961","3","Combo CCS , ChaDeMo , 62196-2 (Three Phase)"
"10424","UAE-HBN-CCL293","J.ALI-ENOC Petrol Station (2020) Expo Site 01","ENOC, dubai, United Arab Emirates","55.159","24.961","2","Combo CCS , ChaDeMo"
"10426","UAE-HBN-CCL278","J.ALI-Expo 2020 Sustainability Parking-01","Dubai, United Arab Emirates","55.156","24.955","2","62196-2 (Three Phase) , 62196-2 (Three Phase)"
"10428","UAE-HBN-CCL282","J.ALI-Convention Center, Podium Basement Parking","Trade Center, Dubai, United Arab Emirates","55.289","25.222","2","62196-2 (Three Phase) , 62196-2 (Three Phase)"
"10429","UAE-HBN-CCL284","BUR DUBAI-One Central, C2 Bldg, Basement 3, Level B3","Trade Center, Dubai, United Arab Emirates","55.285","25.221","2","62196-2 (Three Phase) , 62196-2 (Three Phase)"
"10430","UAE-HBN-CCL291","BUR DUBAI-Al Barsha South 1 Mall-1  (Left side)","Al Barsha South 1, Dubai, United Arab Emirates","55.241288","25.08572","1","62196-2 (Three Phase)"
"10431","UAE-HBN-CCL292","BUR DUBAI-Al Barsha South 1 Mall-2  (Right side)","Al Barsha South 1, Dubai, United Arab Emirates","55.2411944","25.0856944","1","62196-2 (Three Phase)"
"10432","UAE-HBN-CCL280","J.ALI-Expo 2020 Opportunity Parking-01","Dubai, United Arab Emirates","55.159","24.966","2","62196-2 (Three Phase) , 62196-2 (Three Phase)"
"10433","UAE-HBN-CCL279","J.ALI-Expo 2020 Opportunity Parking-05","Dubai, United Arab Emirates","55.159","24.966","2","62196-2 (Three Phase) , 62196-2 (Three Phase)"
"10434","UAE-HBN-ECC1","BUR DUBAI-Main Office Customer Service Center 01","DEWA, Dubai, United Arab Emirates","55.324","25.227","2","Combo CCS , ChaDeMo"
"10435","UAE-HBN-CCL295","DEIRA-ENOC Petrol Station (1038) Tripoli Street","ENOC, Dubai, United Arab Emirates","55.482","25.188","3","Combo CCS , ChaDeMo , 62196-2 (Three Phase)"
"10437","UAE-HBN-CCL301","J.ALI-Expo 2020 Sustainability Parking-02","Dubai, United Arab Emirates","55.156","24.955","2","62196-2 (Three Phase) , 62196-2 (Three Phase)"
"10438","UAE-HBN-CCL306","J.ALI-Expo 2020 Opportunity Parking-03","Dubai, United Arab Emirates","55.159","24.966","2","62196-2 (Three Phase) , 62196-2 (Three Phase)"
"10439","UAE-HBN-CCL307","J.ALI-Expo 2020 Opportunity Parking-04","Dubai, United Arab Emirates","55.159","24.966","2","62196-2 (Three Phase) , 62196-2 (Three Phase)"
"10440","UAE-HBN-CCL303","J.ALI-Expo 2020 Sustainability Parking-04","Dubai, United Arab Emirates","55.156","24.954","2","62196-2 (Three Phase) , 62196-2 (Three Phase)"
"10441","UAE-HBN-CCL304","J.ALI-Expo 2020 Sustainability Parking-05","Dubai, United Arab Emirates","55.156","24.954","2","62196-2 (Three Phase) , 62196-2 (Three Phase)"
"10442","UAE-HBN-CCL305","J.ALI-Expo 2020 Opportunity Parking-02","Dubai, United Arab Emirates","55.159","24.966","2","62196-2 (Three Phase) , 62196-2 (Three Phase)"
"10443","UAE-HBN-CCL286","DEIRA-Dubai Digital Park-F building Parking","DSO, Dubai, United Arab Emirates","55.377","25.119","2","62196-2 (Three Phase) , 62196-2 (Three Phase)"
"10444","UAE-HBN-CCL287","DEIRA-Dubai Digital Park-A1 building Parking","DSO, Dubai, United Arab Emirates","55.377","25.119","2","62196-2 (Three Phase) , 62196-2 (Three Phase)"
"10445","UAE-HBN-CCL288","DEIRA-Dubai Digital Park-D1 building Parking","DSO, Dubai, United Arab Emirates","55.376661","25.119246","2","62196-2 (Three Phase) , 62196-2 (Three Phase)"
"10446","UAE-HBN-CCL289","DEIRA-Dubai Digital Park-C building Parking","DSO, Dubai, United Arab Emirates","55.3778333","25.1199722","2","62196-2 (Three Phase) , 62196-2 (Three Phase)"
"10447","UAE-HBN-CCL290","DEIRA-Dubai Digital Park-A5 building Parking","DSO, Dubai, United Arab Emirates","55.377841","25.119976","2","62196-2 (Three Phase) , 62196-2 (Three Phase)"
"10448","UAE-HBN-CCL283","Diera-Sh: Mohammed Bin Rashid Housing Project Building-B09","Muhaisinah, Dubai, United Arab Emirates","55.409","25.275","2","62196-2 (Three Phase) , 62196-2 (Three Phase)"
"10449","UAE-HBN-CCL308","DEIRA-Dubai Civil Defense Head Quarters-01","Ghusais, Dubai, United Arab Emirates","55.389","25.264","2","62196-2 (Three Phase) , 62196-2 (Three Phase)"
"10450","UAE-HBN-CCL309","DEIRA-Dubai Civil Defense Head Quarters-02","Ghusais, Dubai, United Arab Emirates","55.389","25.263","2","62196-2 (Three Phase) , 62196-2 (Three Phase)"
"10451","UAE-HBN-CCL310","DEIRA-Dubai Civil Defense Workshop","Ghusais, Dubai, United Arab Emirates","55.391","25.265","2","62196-2 (Three Phase) , 62196-2 (Three Phase)"
"10452","UAE-HBN-CCL311","DEIRA-Dubai Civil Defense Fire Station","Hamariya Deira, Dubai, United Arab Emirates","55.335","25.298","2","62196-2 (Three Phase) , 62196-2 (Three Phase)"
"10453","UAE-HBN-CCL312","BUR DUBAI-Dubai Civil Defense Fire Station","Manara, Dubai, United Arab Emirates","55.22132","25.147704","2","62196-2 (Three Phase) , 62196-2 (Three Phase)"
"10454","UAE-HBN-CCL317","BUR DUBAI-General Directorate- Residency & Foriegn Affairs","Jafilia, Dubai, United Arab Emirates","55.291","25.235","2","62196-2 (Three Phase) , 62196-2 (Three Phase)"
"10455","UAE-HBN-CCL296","BUR DUBAI-ENOC Petrol Station (1604)","Nad Al Sheba, Dubai, United Arab Emirates","55.335","25.154","3","Combo CCS , ChaDeMo , 62196-2 (Three Phase)"
"10461","UAE-HBN-CCL297","J.ALI-ENOC Petrol Station (1008)","Hessayan, Dubai, United Arab Emirates","55.0","24.927","3","Combo CCS , ChaDeMo , 62196-2 (Three Phase)"
"10462","UAE-HBN-CCL320","DEIRA-ENOC Petrol Station (1602)","Al Awir, Dubai, United Arab Emirates","55.555","25.209","3","ChaDeMo , Combo CCS , 62196-2 (Three Phase)"
"10463","UAE-HBN-CCL285","BUR DUBAI-Dubai Police, Al Raffa Police Station","Dubai, United Arab Emirates","55.290245","25.262613","2","62196-2 (Three Phase) , 62196-2 (Three Phase)"
"10464","UAE-HBN-CCL298","DEIRA-Solar Innovation Center-01","Dubai, United Arab Emirates","55.363","24.757","2","62196-2 (Three Phase) , 62196-2 (Three Phase)"
"10465","UAE-HBN-CCL299","DEIRA-Solar Innovation Center-02","Dubai, United Arab Emirates","55.36205","24.757441","2","62196-2 (Three Phase) , 62196-2 (Three Phase)"
"10466","UAE-HBN-CCL300","DEIRA-Solar Innovation Center-03","Dubai, United Arab Emirates","55.361896","24.757146","2","62196-2 (Three Phase) , 62196-2 (Three Phase)"
"10467","UAE-HBN-CCL322","J.ALI-Millennium place hotel","Barsha Heights, Dubai, United Arab Emirates","55.176","25.092","2","62196-2 (Three Phase) , 62196-2 (Three Phase)"
"10468","UAE-HBN-CCL321","DEIRA-Sport Society","Mirdif, Dubai, United Arab Emirates","55.408","25.222","2","62196-2 (Three Phase) , 62196-2 (Three Phase)"
"10469","UAE-HBN-CCL319","BUR DUBAI-Al Wasl Experience Center","Al Safa-2, Dubai, United Arab Emirates","55.228","25.158","2","62196-2 (Three Phase) , 62196-2 (Three Phase)"
"10470","UAE-HBN-CCL318","HATTA-Dewa Mosque","Hatta, Dubai, United Arab Emirates","56.082","24.84","2","62196-2 (Three Phase) , 62196-2 (Three Phase)"
"10471","UAE-HBN-CCL327","DEIRA-New Police Station, Lehbab (Left side)","Dubai, United Arab Emirates","55.599","25.032","2","62196-2 (Three Phase) , 62196-2 (Three Phase)"
"10472","UAE-HBN-CCL328","DEIRA-New Police Station, Lehbab (Right side)","Dubai, United Arab Emirates","55.599","25.032","2","62196-2 (Three Phase) , 62196-2 (Three Phase)"
"10474","UAE-HBN-CCL325","DEIRA-Dubai Ambulance Office(inside parking)","Warsan3, Dubai, United Arab Emirates","55.471","25.165","2","62196-2 (Three Phase) , 62196-2 (Three Phase)"
"10475","UAE-HBN-CCL326","DEIRA-Dubai Ambulance Office (outside parking)","Warsan3, Dubai, United Arab Emirates","55.471","25.165","2","62196-2 (Three Phase) , 62196-2 (Three Phase)"
"10476","UAE-HBN-CCL323","BUR DUBAI-Avenue Mall (Front side Parking)","Nad Al Sheba 2, Dubai, United Arab Emirates","55.34646","25.144666","2","62196-2 (Three Phase) , 62196-2 (Three Phase)"
"10477","UAE-HBN-CCL324","BUR DUBAI-Avenue Mall (Back side Parking)","Nad Al Sheba 2, Dubai, United Arab Emirates","55.348","25.145","2","62196-2 (Three Phase) , 62196-2 (Three Phase)"
"10478","UAE-HBN-CCL330","DEIRA-Fly Dubai HQ - 01 (Left side)","Warsan 3, Dubai, United Arab Emirates","55.471","25.146","2","62196-2 (Three Phase) , 62196-2 (Three Phase)"
"10479","UAE-HBN-CCL331","DEIRA-Fly Dubai HQ - 02 (Right side)","Warsan 3, Dubai, United Arab Emirates","55.471376","25.145493","2","62196-2 (Three Phase) , 62196-2 (Three Phase)"
"10481","UAE-HBN-CCL333","BUR DUBAI-Wasl Kifaf Development Ph2","DUBAI, United Arab Emirates","55.296","25.232","2","62196-2 (Three Phase) , 62196-2 (Three Phase)"
"10482","UAE-HBN-CCL335","BUR DUBAI-ADNOC Petrol Station,Al Quoz Industrial 3","ADNOC, Dubai, United Arab Emirates","55.2181701","25.1375255","3","62196-2 (Three Phase) , Combined ChaDeMo/ComboCCS , Combined ChaDeMo/C"
"10484","UAE-HBN-CCL334","J.ALI-Enoc service station-1666/521","Madinat Al Mattar, Dubai, United Arab Emirates","55.219","24.936","3","62196-2 (Three Phase) , Combined ChaDeMo/ComboCCS , Combined ChaDeMo/C"
"10485","UAE-HBN-CCL340","RTA Head Quarters,Basement1","Ramool, Dubai, United Arab Emirates","55.357","25.234","2","62196-2 (Three Phase) , 62196-2 (Three Phase)"
"10486","UAE-HBN-CCL343","BUR DUBAI DWTC Sh:Rashid Hall Multistory Parking,Basement","Sh.Zayed Road, Sh.Zayed Road, United Arab Emirates","55.287","25.223","2","62196-2 (Three Phase) , 62196-2 (Three Phase)"
"10487","UAE-HBN-CCL344","BUR DUBAI DWTC Sh:Rashid Hall  Multistory Parking,4th floor","Sh.Zayed Road, Sh.Zayed Road, Dubai, United Arab Emirates","55.287","25.222","2","62196-2 (Three Phase) , 62196-2 (Three Phase)"
"10488","UAE-HBN-CCL342","DIERA-Adnoc Dubai-AlAin Road, Near Outlet mall","Umm Nahad, Dubai, United Arab Emirates","55.407","25.068","3","62196-2 (Three Phase) , Combined ChaDeMo/ComboCCS , Combined ChaDeMo/C"
"10489","UAE-HBN-CCL341","BUR DUBAI DWTC Apartment B Block, Trade centre","Sh.Zayed Road, 25.2232072, 55.284795, Dubai, United Arab Emirates","55.285","25.223","2","62196-2 (Three Phase) , 62196-2 (Three Phase)"
"10490","UAE-HBN-CCL345","Moro Data Center-MBR Solar Park, Saih Al Dahal","Lusaily, Dubai, United Arab Emirates","55.365","24.766","2","62196-2 (Three Phase) , 62196-2 (Three Phase)"
"10491","UAE-HBN-CCL337","BUR DUBAI-Dubai Media Head Office, Umm Hurair","Umm Hurair, Dubai, United Arab Emirates","55.318","25.247","2","62196-2 (Three Phase) , 62196-2 (Three Phase)"
"10492","UAE-HBN-CCL336","DIERA-DEWA warsan family accomadation, Warsan","Warsan, Dubai, United Arab Emirates","55.43227","25.14911","2","62196-2 (Three Phase) , 62196-2 (Three Phase)"
"10493","UAE-HBN-CCL338","Dubai Police,Trafic Department Admin Building,  Deira","Al Twar, Dubai, United Arab Emirates","55.35459","25.27258","2","62196-2 (Three Phase) , 62196-2 (Three Phase)"
"10494","UAE-HBN-CCL339","Dubai Police,Forensic Sciences & Criminology Building, DP HQ","Dubai, United Arab Emirates","55.35765","25.27848","2","62196-2 (Three Phase) , 62196-2 (Three Phase)"
"10495","UAE-HBN-CCL349","Dubai Police,Mounted Police Station, Aweer","Al Aweer, Dubai, United Arab Emirates","55.432","25.149","1","62196-2 (Three Phase)"
"10496","UAE-HBN-CCL347","Dewa Warsan Accommodation (Bachelor)","Warsan, Dubai, United Arab Emirates","55.4330068","25.149068","2","62196-2 (Three Phase) , 62196-2 (Three Phase)"
"10497","UAE-HBN-CCL346","DIERA-Naif Police Station, Naif","Deira, Dubai, United Arab Emirates","55.306","25.273","2","62196-2 (Three Phase) , 62196-2 (Three Phase)"
"10498","UAE-HBN-CCL348","Dubai Real Estate Corporation (AL WASL), Port Views, Madinat Dubai","Satwa, 25.24597, 55.27542, Dubai, United Arab Emirates","55.275","25.246","2","62196-2 (Three Phase) , 62196-2 (Three Phase)"
"10499","UAE-HBN-CCL350","Adnoc service station, Wadi al Amardi east","Wadi al Aamardi, Dubai, United Arab Emirates","55.50341","25.18366","3","Combo CCS , ChaDeMo , 62196-2 (Three Phase)"
"10500","UAE-HBN-CCL351","Adnoc service station, Wadi al Shabak","Wadi al Shabak, Dubai, United Arab Emirates","55.35637","25.08934","3","Combo CCS , ChaDeMo , 62196-2 (Three Phase)"
"10501","UAE-HBN-CCL352","Adnoc service station, The Villa,Wadi al Saffa","Wadi al Saffa, Dubai, United Arab Emirates","55.49278","25.18462","3","Combo CCS , ChaDeMo , 62196-2 (Three Phase)"
"10502","UAE-HBN-CCL353","Adnoc service station, Jebal Ali","Jebal Ali, Dubai, United Arab Emirates","55.147","25.003","3","Combo CCS , ChaDeMo , 62196-2 (Three Phase)"
"10503","UAE-HBN-CCL354","DEIRA-Adnoc service station, Akoya, Yufra","Jebal Ali-Habab Rd, Dubai, United Arab Emirates","55.407","24.966","3","62196-2 (Three Phase) , Combined ChaDeMo/ComboCCS , Combined ChaDeMo/C"
"10504","UAE-HBN-CCL355","DEIRA- Adnoc service station, Garoob ,Mirdif","Mirdif, Dubai, United Arab Emirates","55.425","25.214","3","62196-2 (Three Phase) , Combined ChaDeMo/ComboCCS , Combined ChaDeMo/C"
"10505","UAE-HBN-CCL356","DEIRA-Adnoc service station, Wadi al Shabak","Mirdif, 25.1659496, 55.4771899, Dubai, United Arab Emirates","55.477","25.165","3","Combo CCS , ChaDeMo , 62196-2 (Three Phase)"
"10511","UAE-HBN-CCL361A","Lego land Hotel, Jebal Ali","Saih Al Shoib, 24.9172682, 55.0090696, Dubai, United Arab Emirates","55.009071","24.9172664","1","62196-2 (Three Phase)"
"10517","UAE-HBN-CCL361B","Lego land Hotel, Jebal Ali 1","Saih Al Shoib, Dubai, United Arab Emirates","55.009071","24.9172664","1","62196-2 (Three Phase)"
"10519","UAE-HBN-CCL370","Tecom Master Card Bldg , Safouh","Dubai, United Arab Emirates","55.158","25.095","2","62196-2 (Three Phase) , 62196-2 (Three Phase)"
"10520","UAE-HBN-CCL371","Dubai Holding, DSP Head Quarters","Barsha, Dubai, United Arab Emirates","55.241","25.074","2","62196-2 (Three Phase) , 62196-2 (Three Phase)"
"113","UAE-HBN-CCL2","BUR DUBAI-Main Office Customer Service Center 02","DEWA, Dubai, United Arab Emirates","55.324","25.227","3","ChaDeMo , Combo CCS , 62196-2 (Three Phase)"
"116","UAE-HBN-CCL4","BUR DUBAI-Al Quoz Sustainable Building 03","DEWA, United Arab Emirates","55.232","25.154","2","62196-2 (Three Phase) , 62196-2 (Three Phase)"
"118","UAE-HBN-CCL6","BUR DUBAI-Al Hudaiba Customer Services Center 01","DEWA, Dubai, United Arab Emirates","55.281859","25.244297","2","62196-2 (Three Phase) , 62196-2 (Three Phase)"
"120","UAE-HBN-CCL8","DEIRA-Umm Ramoul Customer Services Center","DEWA, Dubai, United Arab Emirates","55.376","25.225","2","62196-2 (Three Phase) , 62196-2 (Three Phase)"
"122","UAE-HBN-CCL10","J.ALI-Jabel Ali Industries Customer Service Center 01","DEWA, Dubai, United Arab Emirates","55.105","24.997","2","62196-2 (Three Phase) , 62196-2 (Three Phase)"
"124","UAE-HBN-CCL12","BUR DUBAI-Al Wasel Customer Service Center","DEWA, Dubai, United Arab Emirates","55.262","25.2","2","62196-2 (Three Phase) , 62196-2 (Three Phase)"
"128","UAE-HBN-CCL16","J.ALI-Maktoum Airport","Dubai Airport, Dubai, United Arab Emirates","55.158","24.885","2","62196-2 (Three Phase) , 62196-2 (Three Phase)"
"151","UAE-HBN-CCL17","DEIRA-Warsan Store 01","DEWA, Dubai, United Arab Emirates","55.4342699","25.1499405","2","62196-2 (Three Phase) , 62196-2 (Three Phase)"
"153","UAE-HBN-CCL18","DEIRA-Warsan Store 02","DEWA, Dubai, United Arab Emirates","55.4364","25.1497","2","62196-2 (Three Phase) , 62196-2 (Three Phase)"
"154","UAE-HBN-CCL19","DEIRA-Rowaiyah -Green Garage 02","DEWA, Dubai, United Arab Emirates","55.429","25.149","2","62196-2 (Three Phase) , 62196-2 (Three Phase)"
"155","UAE-HBN-CCL20","BUR DUBAI-Burj Khalifa/Armani","EMAAR, Dubai, United Arab Emirates","55.273","25.198","2","62196-2 (Three Phase) , 62196-2 (Three Phase)"
"156","UAE-HBN-CCL21","DEIRA-Rowaiyah -Green Garage 04","DEWA, Dubai, United Arab Emirates","55.429","25.149","2","62196-2 (Three Phase) , 62196-2 (Three Phase)"
"157","UAE-HBN-CCL22","DEIRA-Al Twar Center 01","Dubai, Al Twar 2, Al Twar, United Arab Emirates","55.385","25.262","2","62196-2 (Three Phase) , 62196-2 (Three Phase)"
"158","UAE-HBN-CCL23","DEIRA-Al Twar Center 02","Dubai Municipality, Dubai, United Arab Emirates","55.383","25.262","2","62196-2 (Three Phase) , 62196-2 (Three Phase)"
"159","UAE-HBN-CCL24","DEIRA-Umm Ramool 01","Dubai Municipality, United Arab Emirates","55.361","25.237","2","62196-2 (Three Phase) , 62196-2 (Three Phase)"
"160","UAE-HBN-CCL25","BUR DUBAI-Neighborhood Park -Al Barsha South 1","Dubai Municipality, Dubai, United Arab Emirates","55.2297","25.0909","2","62196-2 (Three Phase) , 62196-2 (Three Phase)"
"161","UAE-HBN-CCL26","DEIRA","Dubai Municipality 01, Dubai, United Arab Emirates","55.312","25.264","2","62196-2 (Three Phase) , 62196-2 (Three Phase)"
"162","UAE-HBN-CCL27","DEIRA","Dubai Municipality 02, Dubai, United Arab Emirates","55.312","25.264","2","62196-2 (Three Phase) , 62196-2 (Three Phase)"
"163","UAE-HBN-CCL28","BUR DUBAI-Manara Center","Dubai Municipality, Dubai, United Arab Emirates","55.227","25.157","2","62196-2 (Three Phase) , 62196-2 (Three Phase)"
"164","UAE-HBN-CCL29","BUR DUBAI-Global Village - VIP Parking","Dubai, United Arab Emirates","55.303","25.07","2","62196-2 (Three Phase) , 62196-2 (Three Phase)"
"165","UAE-HBN-CCL30","J.ALI-ENOC Petrol Station (1057) Jabel Ali E311","ENOC, Dubai, United Arab Emirates","55.026","24.869","3","ChaDeMo , Combo CCS , 62196-2 (Three Phase)"
"166","UAE-HBN-CCL31","BUR DUBAI-Rashid Hospital","Dubai Health Authority, Dubai, United Arab Emirates","55.3186076","25.2448703","2","62196-2 (Three Phase) , 62196-2 (Three Phase)"
"169","UAE-HBN-CCL33","J.ALI-Jabel Ali Power House-M station","DEWA, Dubai, United Arab Emirates","55.108","25.046","2","62196-2 (Three Phase) , 62196-2 (Three Phase)"
"170","UAE-HBN-CCL34","J.ALI-Jabel Ali Power House-L station","DEWA, Dubai, United Arab Emirates","55.114","25.054","2","62196-2 (Three Phase) , 62196-2 (Three Phase)"
"171","UAE-HBN-CCL35","J.ALI-EPPCO Petrol Station (61) Jebal Ali E11","ENOC, Dubai, United Arab Emirates","55.011","24.929","3","Combo CCS , ChaDeMo , 62196-2 (Three Phase)"
"172","UAE-HBN-CCL36","J.ALI-ENOC petrol station (1056) DIP","ENOC, Dubai, United Arab Emirates","55.147","25.017","2","Combined ChaDeMo/ComboCCS , 62196-2 (Three Phase)"
"173","UAE-HBN-CCL37","BUR DUBAI-Main Office Customer Service Center 03","DEWA, Dubai, United Arab Emirates","55.3244669","25.2272278","2","62196-2 (Three Phase) , 62196-2 (Three Phase)"
"174","UAE-HBN-CCL38","BUR DUBAI-ENOC Petrol Station (1035) Umm Suqeim","ENOC, Dubai, United Arab Emirates","55.215","25.169","3","Combo CCS , ChaDeMo , 62196-2 (Three Phase)"
"180","UAE-HBN-CCL44","BUR DUBAI-ENOC Petrol Station (1088) Zabeel","ENOC, Dubai, United Arab Emirates","55.314","25.22","2","Combined ChaDeMo/ComboCCS , 62196-2 (Three Phase)"
"181","UAE-HBN-CCL45","BUR DUBAI-Sustainable City 01","Sustainable City, Dubai, United Arab Emirates","55.274","25.028","2","62196-2 (Three Phase) , 62196-2 (Three Phase)"
"182","UAE-HBN-CCL46","BUR DUBAI-Sustainable City 02","Sustainable City, Dubai, United Arab Emirates","55.274","25.028","2","62196-2 (Three Phase) , 62196-2 (Three Phase)"
"183","UAE-HBN-CCL47","BUR DUBAI-Sustainable City 03","Sustainable City, Dubai, United Arab Emirates","55.274","25.028","2","62196-2 (Three Phase) , 62196-2 (Three Phase)"
"184","UAE-HBN-CCL48","BUR DUBAI-Sustainable City 04","Sustainable City, Dubai, United Arab Emirates","55.2742861","25.0278536","2","62196-2 (Three Phase) , 62196-2 (Three Phase)"
"185","UAE-HBN-CCL49","BUR DUBAI-Sustainable City 05","Sustainable City, Dubai, United Arab Emirates","55.2742861","25.0278536","2","62196-2 (Three Phase) , 62196-2 (Three Phase)"
"186","UAE-HBN-CCL50","DEIRA-Dubai Silicon Oasis Community Center","Dubai Silicon Oasis, Dubai, United Arab Emirates","55.396545","25.127755","2","62196-2 (Three Phase) , 62196-2 (Three Phase)"
"187","UAE-HBN-CCL51","J.ALI-JAFZA Location 01","JAFZA, Dubai, United Arab Emirates","55.091","24.985","2","62196-2 (Three Phase) , 62196-2 (Three Phase)"
"188","UAE-HBN-CCL52","J.ALI-Anantara hotel","Palm Jumeirah Anantara, Dubai, UAE, Dubai, United Arab Emirates","55.153","25.13","2","62196-2 (Three Phase) , 62196-2 (Three Phase)"
"189","UAE-HBN-CCL53","BUR DUBAI-Latifa Hospital","Dubai Health Authority, Dubai, United Arab Emirates","55.3176719","25.2263088","2","62196-2 (Three Phase) , 62196-2 (Three Phase)"
"190","UAE-HBN-CCL54","Deira Al-Warqa DPE Office","DEWA, 25.27258, 55.40660, Dubai, United Arab Emirates","55.4","25.186223","2","62196-2 (Three Phase) , 62196-2 (Three Phase)"
"191","UAE-HBN-CCL55","DEIRA-Dubai Hospital","Dubai Health Authority, Dubai, United Arab Emirates","55.321","25.285","2","62196-2 (Three Phase) , 62196-2 (Three Phase)"
"192","UAE-HBN-CCL56","DEIRA-Solar Park 1","DEWA, Dubai, United Arab Emirates","55.3691","24.7677","2","62196-2 (Three Phase) , 62196-2 (Three Phase)"
"194","UAE-HBN-CCL58","J.ALI-JAFZA Location 03","JAFZA, Dubai, United Arab Emirates","55.091","24.985","2","62196-2 (Three Phase) , 62196-2 (Three Phase)"
"195","UAE-HBN-CCL59","HATTA","DEWA-Customer Service Center, Hatta, United Arab Emirates","56.126","24.809","2","62196-2 (Three Phase) , 62196-2 (Three Phase)"
"196","UAE-HBN-CCL60","J.ALI-JAFZA Location 02","JAFZA, Dubai, United Arab Emirates","55.091","24.985","2","62196-2 (Three Phase) , 62196-2 (Three Phase)"
"198","UAE-HBN-CCL61","DEIRA-Dubai Silicon Oasis 7 Towers","Dubai Silicon Oasis, United Arab Emirates","55.3717023","25.1145037","2","62196-2 (Three Phase) , 62196-2 (Three Phase)"
"199","UAE-HBN-CCL62","DEIRA-Warsan Office 01","DEWA, Dubai, United Arab Emirates","55.4337","25.1464","2","62196-2 (Three Phase) , 62196-2 (Three Phase)"
"200","UAE-HBN-CCL63","DEIRA-Warsan Office 02","DEWA, Dubai, United Arab Emirates","55.433781","25.146664","2","62196-2 (Three Phase) , 62196-2 (Three Phase)"
"201","UAE-HBN-CCL64","J.ALI-The Beach","GreenParking, Dubai, United Arab Emirates","55.134","25.078","2","62196-2 (Three Phase) , 62196-2 (Three Phase)"
"202","UAE-HBN-CCL65","DEIRA-Asset Rehabilitation Center -Ruwaiyah","DEWA, Dubai, United Arab Emirates","55.4945833","25.1491111","1","62196-2 (Three Phase)"
"203","UAE-HBN-CCL66","J.ALI-ENOC Petrol Station (1060) Dubai Internet City","ENOC, Dubai, United Arab Emirates","55.165","25.096","3","ChaDeMo , Combo CCS , 62196-2 (Three Phase)"
"204","UAE-HBN-CCL67","J ALI-Madinat Jumeirah","Jumeirah Group, Dubai, United Arab Emirates","55.187","25.133","2","62196-2 (Three Phase) , 62196-2 (Three Phase)"
"205","UAE-HBN-CCL68","DEIRA-Mamzar Health Center","Dubai Health Authority, Dubai, United Arab Emirates","55.3476472","25.2976146","2","62196-2 (Three Phase) , 62196-2 (Three Phase)"
"206","UAE-HBN-CCL69","DEIRA-Rowaiyah -Green Garage 01","DEWA, Dubai, United Arab Emirates","55.492","25.149","3","ChaDeMo , Combo CCS , 62196-2 (Three Phase)"
"207","UAE-HBN-CCL70","DEIRA-Al Qusais DCC","DEWA, Dubai, United Arab Emirates","55.364","25.283","2","62196-2 (Three Phase) , 62196-2 (Three Phase)"
"208","UAE-HBN-CCL71","DEIRA-RTA Parking New Subkhah 01","RTA, Dubai, United Arab Emirates","55.3043305","25.2682388","2","62196-2 (Three Phase) , 62196-2 (Three Phase)"
"209","UAE-HBN-CCL72","DEIRA-RTA Parking Naif 01","RTA, Dubai, United Arab Emirates","55.3050236","25.2729658","2","62196-2 (Three Phase) , 62196-2 (Three Phase)"
"210","UAE-HBN-CCL73","DEIRA-RTA Parking Naif 02","RTA, Dubai, United Arab Emirates","55.3050236","25.2729658","2","62196-2 (Three Phase) , 62196-2 (Three Phase)"
"211","UAE-HBN-CCL74","DEIRA-RTA Parking Old Subkhah 01","RTA, Dubai, United Arab Emirates","55.3041777","25.2696962","2","62196-2 (Three Phase) , 62196-2 (Three Phase)"
"212","UAE-HBN-CCL75","DEIRA-RTA Parking Old Subkhah 02","RTA, Dubai, United Arab Emirates","55.3041777","25.2696962","2","62196-2 (Three Phase) , 62196-2 (Three Phase)"
"213","UAE-HBN-CCL76","BUR DUBAI-Jumeirah Beach Hotel","Jumeirah Group, Dubai, United Arab Emirates","55.1919038","25.1417438","2","62196-2 (Three Phase) , 62196-2 (Three Phase)"
"214","UAE-HBN-CCL77","BUR DUBAI-Jumeirah Emirates Towers","Jumeirah Group, Dubai, United Arab Emirates","55.283","25.217","2","62196-2 (Three Phase) , 62196-2 (Three Phase)"
"215","UAE-HBN-CCL78","J.Ali-Movenpick hotel","Seven Tides, Dubai, United Arab Emirates","55.116","25.043","2","62196-2 (Three Phase) , 62196-2 (Three Phase)"
"216","UAE-HBN-CCL79","BUR DUBAI-Sheikh Mohammed bin Rashid Al Maktoum Boulevard 2","EMAAR, Dubai, United Arab Emirates","55.2722066","25.191508","2","62196-2 (Three Phase) , 62196-2 (Three Phase)"
"217","UAE-HBN-CCL80","BUR DUBAI-RTA Parking Ghubaibah 01","RTA, Dubai, United Arab Emirates","55.2903469","25.2637991","2","62196-2 (Three Phase) , 62196-2 (Three Phase)"
"218","UAE-HBN-CCL81","BUR DUBAI-Dubai Petroleum 01","Dubai Supreme Council of Energy, Dubai, United Arab Emirates","55.2645","25.2096","1","62196-2 (Three Phase)"
"219","UAE-HBN-CCL82","BUR DUBAI-Dubai Petroleum 02","Dubai Supreme Council of Energy, Dubai, United Arab Emirates","55.2644763","25.2095927","1","62196-2 (Three Phase)"
"220","UAE-HBN-CCL83","DEIRA-RTA Parking Al Riqqa 01","RTA, Dubai, United Arab Emirates","55.308","25.268","2","62196-2 (Three Phase) , 62196-2 (Three Phase)"
"221","UAE-HBN-CCL84","DEIRA-RTA Parking Al Riqqa 02","RTA, Dubai, United Arab Emirates","55.3066178","25.2678813","2","62196-2 (Three Phase) , 62196-2 (Three Phase)"
"222","UAE-HBN-CCL85","BUR DUBAI-Al Quoz Sustainable Building 01","DEWA, Dubai, United Arab Emirates","55.232","25.154","1","62196-2 (Three Phase)"
"223","UAE-HBN-CCL86","BUR DUBAI-Al Quoz Sustainable Building 02","DEWA, Dubai, United Arab Emirates","55.232","25.154","1","62196-2 (Three Phase)"
"224","UAE-HBN-CCL87","BUR DUBAI-Sheikh Mohammed bin Rashid Al Maktoum Boulevard 3 - 01","EMAAR, Dubai, United Arab Emirates","55.27","25.195","1","62196-2 (Three Phase)"
"225","UAE-HBN-CCL88","BUR DUBAI-Sheikh Mohammed bin Rashid Al Maktoum Boulevard 3 - 02","EMAAR, Dubai, United Arab Emirates","55.27","25.195","1","62196-2 (Three Phase)"
"226","UAE-HBN-CCL89","BUR DUBAI-Main Office Customer Service Center 04","DEWA, Dubai, United Arab Emirates","55.3238983","25.2275869","1","62196-2 (Three Phase)"
"227","UAE-HBN-CCL90","J.ALII-BCT GreenParking","GreenParking, Dubai, United Arab Emirates","55.17","25.101","1","62196-2 (Three Phase)"
"228","UAE-HBN-CCL91","BUR DUBAI-RTA Parking Ghubaibah 02","RTA, Dubai, United Arab Emirates","55.29","25.264","2","62196-2 (Three Phase) , 62196-2 (Three Phase)"
"229","UAE-HBN-CCL92","DEIRA-RTA Parking New Subkhah 02","RTA, Dubai, United Arab Emirates","55.3043305","25.2682388","2","62196-2 (Three Phase) , 62196-2 (Three Phase)"
"230","UAE-HBN-CCL93","BUR DUBAI-Dubai Design District (D3) - Basement","Tecom, Dubai, United Arab Emirates","55.2972316","25.1901611","2","62196-2 (Three Phase) , 62196-2 (Three Phase)"
"232","UAE-HBN-CCL95","DEIRA-Installed at  Dubai Airport  Terminal 2","Dubai Airport, Dubai, United Arab Emirates","55.3557","25.2675","2","62196-2 (Three Phase) , 62196-2 (Three Phase)"
"233","UAE-HBN-CCL96","J.ALI-Dubai Marina Mall 01","EMAAR, Dubai, United Arab Emirates","55.141","25.076","1","62196-2 (Three Phase)"
"234","UAE-HBN-CCL97","J.ALI-Dubai Marina Mall 02","EMAAR, Dubai, United Arab Emirates","55.1390161","25.0757664","1","62196-2 (Three Phase)"
"236","UAE-HBN-CCL99","BUR DUBAI-Dubai Design District (D3) 02","Tecom, Dubai, United Arab Emirates","55.299","25.189","2","62196-2 (Three Phase) , 62196-2 (Three Phase)"
"237","UAE-HBN-CCL100","BUR DUBAI- Dubai Design District (D3) 01","Tecom, Dubai, United Arab Emirates","55.2988243","25.1892318","2","62196-2 (Three Phase) , 62196-2 (Three Phase)"
"238","UAE-HBN-CCL200","DEIRA-Dubai Airport  Terminal 1 Departure","Dubai Airport, Dubai, United Arab Emirates","55.3521869","25.2489236","2","62196-2 (Three Phase) , 62196-2 (Three Phase)"
"239","UAE-HBN-CCL5","BUR DUBAI","17 7th Street, Al Hudaiba Customer ServicesAl Hudaiba, Dubai, United Arab Emirates","55.281959","25.244397","2","62196-2 (Three Phase) , 62196-2 (Three Phase)"
"240","UAE-HBN-CCL101","DEIRA-Dubai Men's college","Academic City, Dubai, United Arab Emirates","55.394","25.111","2","62196-2 (Three Phase) , 62196-2 (Three Phase)"
"241","UAE-HBN-CCL102","DEIRA-Dubai Silicon Oasis Head Office","Dubai Silicon Oasis, Dubai, United Arab Emirates","55.38","25.124","2","62196-2 (Three Phase) , 62196-2 (Three Phase)"
"242","UAE-HBN-CCL103","HATTA-public library","Hatta, United Arab Emirates","56.1322092","24.8169213","2","62196-2 (Three Phase) , 62196-2 (Three Phase)"
"244","UAE-HBN-CCL105","DEIRA-Qudra Cycling Track","RTA, Dubai, United Arab Emirates","55.345","24.849","2","62196-2 (Three Phase) , 62196-2 (Three Phase)"
"245","UAE-HBN-CCL106","DEIRA-Dubai Taxi HQ 01","Dubai Taxi Corporation-, Dubai-SS3066B(PVT LVDB), United Arab Emirates","55.415","25.278","2","62196-2 (Three Phase) , 62196-2 (Three Phase)"
"246","UAE-HBN-CCL107","DEIRA-Dubai Taxi HQ","02 Dubai Taxi Corporation 02, Dubai-SS3066B(PVT LVDB), United Arab Emirates","55.415","25.278","2","62196-2 (Three Phase) , 62196-2 (Three Phase)"
"247","UAE-HBN-CCL108","DEIRA-Dubai Taxi HQ 03","Dubai Taxi Corporation 03, Dubai, United Arab Emirates","55.415","25.278","2","62196-2 (Three Phase) , 62196-2 (Three Phase)"
"248","UAE-HBN-CCL109","BUR DUBAI-Etihad Museum","Dubai, United Arab Emirates","55.2698055","25.2413611","2","62196-2 (Three Phase) , 62196-2 (Three Phase)"
"249","UAE-HBN-CCL110","BUR DUBAI-Nad Al Sheba Park","Dubai Municipality, Dubai, United Arab Emirates","55.323","25.149","2","62196-2 (Three Phase) , 62196-2 (Three Phase)"
"250","UAE-HBN-CCL111","DEIRA","DEWA-Rowaiyah -Green Garage 03, Dubai, United Arab Emirates","55.429","25.149","2","62196-2 (Three Phase) , 62196-2 (Three Phase)"
"252","UAE-HBN-CCL113","J.ALI-Dubai South HQ","Dubai South, Dubai, United Arab Emirates","55.119","24.91","2","62196-2 (Three Phase) , 62196-2 (Three Phase)"
"253","UAE-HBN-CCL114","BUR DUBAI-Dubai Holding HQ","Dubai Holding, Dubai, United Arab Emirates","55.189","25.133","2","62196-2 (Three Phase) , 62196-2 (Three Phase)"
"254","UAE-HBN-CCL115","DEIRA-Dubai Safari Park 1","Dubai, United Arab Emirates","55.447","25.177","2","62196-2 (Three Phase) , 62196-2 (Three Phase)"
"255","UAE-HBN-CCL116","DEIRA-Dubai Safari Park 2","Dubai, United Arab Emirates","55.447","25.177","2","62196-2 (Three Phase) , 62196-2 (Three Phase)"
"256","UAE-HBN-CCL117","BUR DUBAI-ENOC Petrol Station (1092) Wadi Al Saffa E611","ENOC, Dubai, United Arab Emirates","55.361","25.071","3","ChaDeMo , Combo CCS , 62196-2 (Three Phase)"
"257","UAE-HBN-CCL118","DEIRA-Dubai Police HQ Building","Dubai, United Arab Emirates","55.35","25.275","2","62196-2 (Three Phase) , 62196-2 (Three Phase)"
"260","UAE-HBN-CCL119","BUR DUBAI-DWTC - Sh:Rashid Hall  Multistory Parking,Basement","Dubai, United Arab Emirates","55.278","25.222","1","62196-2 (Three Phase)"
"261","UAE-HBN-CCL120","BUR DUBAI-DWTC - Sh:Rashid Hall Multistory Parking, 3rd  floor","Dubai, United Arab Emirates","55.287","25.222","1","62196-2 (Three Phase)"
"262","UAE-HBN-CCL121","DEIRA-Airport Taxi 01","DEWA, United Arab Emirates","55.3515","25.246194","2","62196-2 (Three Phase) , 62196-2 (Three Phase)"
"263","UAE-HBN-CCL122","DEIRA-Airport Taxi 02","DEWA, United Arab Emirates","55.352","25.246","2","62196-2 (Three Phase) , 62196-2 (Three Phase)"
"264","UAE-HBN-CCL123","DEIRA-Airport Taxi 03","DEWA, United Arab Emirates","55.3515","25.246194","2","62196-2 (Three Phase) , 62196-2 (Three Phase)"
"265","UAE-HBN-CCL124","DEIRA-Airport Taxi 04","DEWA, United Arab Emirates","55.3515","25.246194","2","62196-2 (Three Phase) , 62196-2 (Three Phase)"
"266","UAE-HBN-CCL125","DEIRA-Airport Taxi 05","DEWA, United Arab Emirates","55.3515","25.246194","2","62196-2 (Three Phase) , 62196-2 (Three Phase)"
"267","UAE-HBN-CCL126","DEIRA-Airport Taxi 06","DEWA, United Arab Emirates","55.352","25.246","2","62196-2 (Three Phase) , 62196-2 (Three Phase)"
"268","UAE-HBN-CCL127","DEIRA-Airport Taxi 07","DEWA, United Arab Emirates","55.3515","25.246194","2","62196-2 (Three Phase) , 62196-2 (Three Phase)"
"269","UAE-HBN-CCL128","DEIRA-Airport Taxi 08","DEWA, United Arab Emirates","55.352","25.246","2","62196-2 (Three Phase) , 62196-2 (Three Phase)"
"270","UAE-HBN-CCL129","DEIRA-Airport Taxi 09","DEWA, United Arab Emirates","55.3515","25.246194","2","62196-2 (Three Phase) , 62196-2 (Three Phase)"
"271","UAE-HBN-CCL130","DEIRA-Airport Taxi 10","DEWA, United Arab Emirates","55.3515","25.246194","2","62196-2 (Three Phase) , 62196-2 (Three Phase)"
"272","UAE-HBN-CCL131","DEIRA-Dubai Police E-Service Building","Dubai, United Arab Emirates","55.355","25.279","2","62196-2 (Three Phase) , 62196-2 (Three Phase)"
"273","UAE-HBN-CCL132","BUR DUBAI-Rulers Office, New Parking","Dubai, United Arab Emirates","55.298","25.264","2","62196-2 (Three Phase) , 62196-2 (Three Phase)"
"274","UAE-HBN-CCL133","BUR DUBAI-Hilton Garden Inn Hotel - Al Barsha","Dubai, United Arab Emirates","55.196","25.116","1","62196-2 (Three Phase)"
"275","UAE-HBN-CCL134","BUR DUBAI-Rulers Office,Department Buildings","Dubai, United Arab Emirates","55.2982","25.2641","2","62196-2 (Three Phase) , 62196-2 (Three Phase)"
"276","UAE-HBN-CCL135","BUR DUBAI-Zabeel Health Center","Dubai, United Arab Emirates","55.2844068","25.2017677","2","62196-2 (Three Phase) , 62196-2 (Three Phase)"
"277","UAE-HBN-CCL136","DEIRA-Govt. Workshop Ruwaiyah Front Side","Dubai, United Arab Emirates","55.407","25.09","2","62196-2 (Three Phase) , 62196-2 (Three Phase)"
"278","UAE-HBN-CCL137","DEIRA-Govt. Workshop Ruwaiyah Back Side","Dubai, United Arab Emirates","55.406","25.09","2","62196-2 (Three Phase) , 62196-2 (Three Phase)"
"279","UAE-HBN-CCL138","J.ALI-Emirates Global Aluminium (EGA) Dubal - Jabel Ali","Dubai, United Arab Emirates","55.096","25.037","2","62196-2 (Three Phase) , 62196-2 (Three Phase)"
"280","UAE-HBN-CCL139","BUR DUBAI-Dubai Police Al Barsha Branch 1","Dubai, United Arab Emirates","55.214","25.079","2","62196-2 (Three Phase) , 62196-2 (Three Phase)"
"281","UAE-HBN-CCL140","BUR DUBAI-Dubai Police Al Barsha Branch 2","Dubai, United Arab Emirates","55.214","25.079","2","62196-2 (Three Phase) , 62196-2 (Three Phase)"
"282","UAE-HBN-CCL141","DEIRA","Port Saeed-Dubai Creek Golf & Yacht Club, Dubai, United Arab Emirates","55.333","25.242","2","62196-2 (Three Phase) , 62196-2 (Three Phase)"
"283","UAE-HBN-CCL142","J.ALI-Emirates Golf Club","Emirates Hills 2, Dubai, United Arab Emirates","55.159","25.085","2","62196-2 (Three Phase) , 62196-2 (Three Phase)"
"284","UAE-HBN-CCL144","BUR DUBAI-Mercato Shopping Mall","Basement Parking, Dubai, United Arab Emirates","55.253","25.216","2","62196-2 (Three Phase) , 62196-2 (Three Phase)"
"285","UAE-HBN-CCL145","DEIRA","Ruwaiyah-Ministry of Climate Change and Environment-Backside Parking, Dubai, United Arab Emirates","55.388","25.096","2","62196-2 (Three Phase) , 62196-2 (Three Phase)"
"286","UAE-HBN-CCL146","BUR DUBAI-DWTC - Sh:Rashid Hall Multistory Parking, Basement","Dubai, United Arab Emirates","55.2872925","25.2217853","1","62196-2 (Three Phase)"
"287","UAE-HBN-CCL147","DEIRA","Ruwaiyah-Ministry of Climate Change and Environment-Frontside Parking, Dubai, United Arab Emirates","55.387","25.095","2","62196-2 (Three Phase) , 62196-2 (Three Phase)"
"288","UAE-HBN-CCL148","DEIRA","Lussaily Park-Dubai Muncipality, Dubai, United Arab Emirates","55.472","24.931","2","62196-2 (Three Phase) , 62196-2 (Three Phase)"
"289","UAE-HBN-CCL149","BUR DUBAI-New  Parking Happiness Street -02","DWTC, Dubai, United Arab Emirates","55.289","25.221","1","62196-2 (Three Phase)"
"290","UAE-HBN-CCL150","BUR DUBAI-DWTC - New Zabeel Plaza","Dubai, United Arab Emirates","55.289","25.224","2","62196-2 (Three Phase) , 62196-2 (Three Phase)"
"291","UAE-HBN-CCL143","BUR DUBAI-Meraas","Al Seef, Dubai, United Arab Emirates","55.312","25.257","2","62196-2 (Three Phase) , 62196-2 (Three Phase)"
"292","UAE-HBN-CCL151","BUR DUBAI-DWTC - Sh:Rashid Hall  Multistory Parking,!st Floor","Dubai, United Arab Emirates","55.286","25.223","2","62196-2 (Three Phase) , 62196-2 (Three Phase)"
"293","UAE-HBN-CCL152","J.ALI-Expo 2020 Site office-Left side","Dubai, United Arab Emirates","55.158","24.967","2","62196-2 (Three Phase) , 62196-2 (Three Phase)"
"294","UAE-HBN-CCL153","J.ALI-Expo 2020 Site office-Right side","Dubai, United Arab Emirates","55.158","24.967","2","62196-2 (Three Phase) , 62196-2 (Three Phase)"
"295","UAE-HBN-CCL154","DEIRA","Al Ramool-RTA HQ Multistory Car Park-Ground Floor, Dubai, United Arab Emirates","55.355","25.234","2","62196-2 (Three Phase) , 62196-2 (Three Phase)"
"296","UAE-HBN-CCL155","BUR DUBAI-La Mer","Jumeirah, Dubai, United Arab Emirates","55.2591","25.2298","2","62196-2 (Three Phase) , 62196-2 (Three Phase)"
"297","UAE-HBN-CCL156","J.ALI-City Centre,Meisam - Left side","MAF, Dubai, United Arab Emirates","55.196","25.04","2","62196-2 (Three Phase) , 62196-2 (Three Phase)"
"298","UAE-HBN-CCL157","J.ALI-City Centre,Meisam - Right side","MAF, Dubai, United Arab Emirates","55.195","25.04","2","62196-2 (Three Phase) , 62196-2 (Three Phase)"
"299","UAE-HBN-CCL158","J.ALI-Moro Hub, Data Center-Basement Parking","Jabel Ali, Dubai, United Arab Emirates","55.131","25.065","2","62196-2 (Three Phase) , 62196-2 (Three Phase)"
"300","UAE-HBN-CCL159","J.ALI-Moro Hub, Data Center-Front Parking","Jabel Ali, Dubai, United Arab Emirates","55.131","25.065","2","62196-2 (Three Phase) , 62196-2 (Three Phase)"
"301","UAE-HBN-CCL160","DEIRA","International City Pavilion, Dubai, United Arab Emirates","55.406","25.159","2","62196-2 (Three Phase) , 62196-2 (Three Phase)"
"302","UAE-HBN-CCL161","DEIRA","DM Mamzhar Park, Dubai, United Arab Emirates","55.348","25.318","2","62196-2 (Three Phase) , 62196-2 (Three Phase)"
"303","UAE-HBN-CCL162","DEIRA","DM-Multistory Car Parking,Garhoud-1st Floor, Dubai, United Arab Emirates","55.354","25.235","2","62196-2 (Three Phase) , 62196-2 (Three Phase)"
"304","UAE-HBN-CCL163","DEIRA-Mushrif Office","DEWA, Dubai, United Arab Emirates","55.406","25.232","2","62196-2 (Three Phase) , 62196-2 (Three Phase)"
"305","UAE-HBN-CCL164","BUR DUBAI-Gate District,Basement 2, Client Parking-K14","DIFC, Dubai, United Arab Emirates","55.281","25.214","2","62196-2 (Three Phase) , 62196-2 (Three Phase)"
"306","UAE-HBN-CCL165","DEIRA-R&D DEWA","Dubai, United Arab Emirates","55.369","24.769","2","62196-2 (Three Phase) , 62196-2 (Three Phase)"
"307","UAE-HBN-CCL166","DEIRA-R&D DEWA 2","Dubai, United Arab Emirates","55.369","24.769","2","62196-2 (Three Phase) , 62196-2 (Three Phase)"
"308","UAE-HBN-CCL167","DEIRA-Multistory Car Parking,Garhoud-4th Floor (Left side)","DM, Dubai, United Arab Emirates","55.354","25.235","1","62196-2 (Three Phase)"
"309","UAE-HBN-CCL168","DEIRA-Multistory Car Parking,Garhoud-4th Floor (Right side)","DM, Dubai, United Arab Emirates","55.354","25.235","1","62196-2 (Three Phase)"
"310","UAE-HBN-CCL169","BUR DUBAI-ONE CENTRAL TOWER 01","TRADE CENTER, Dubai, United Arab Emirates","55.2856388","25.2219166","1","62196-2 (Three Phase)"
"311","UAE-HBN-CCL170","BUR DUBAI-ONE CENTRAL TOWER 02","TRADE CENTER, Dubai, United Arab Emirates","55.2856388","25.2219166","1","62196-2 (Three Phase)"
"312","UAE-HBN-CCL171","BUR DUBAI-DWTC - Sh Rashid Tower Parking -01","DWTC, Dubai, United Arab Emirates","55.2882705","25.2280634","1","62196-2 (Three Phase)"
"313","UAE-HBN-CCL172","BUR DUBAI-DWTC - Sh Rashid Tower Parking -02","DWTC, Dubai, United Arab Emirates","55.288","25.228","1","62196-2 (Three Phase)"
"314","UAE-HBN-CCL173","BUR DUBAI-Gate District,Basement 1, Visitors Parking-S18","DIFC, Dubai, United Arab Emirates","55.281737","25.2138661","2","62196-2 (Three Phase) , 62196-2 (Three Phase)"
"315","UAE-HBN-CCL174","BUR DUBAI-New  Parking Happiness Street -01","DWTC, Dubai, United Arab Emirates","55.289","25.221","2","62196-2 (Three Phase) , 62196-2 (Three Phase)"
"316","UAE-HBN-CCL175","BUR DUBAI-Gate Village,Basement 2,Visitors Parking-E05","DIFC, Dubai, United Arab Emirates","55.281","25.214","2","62196-2 (Three Phase) , 62196-2 (Three Phase)"
"317","UAE-HBN-CCL176","BUR DUBAI-Carrefour Market","Al Barsha South, Dubai, United Arab Emirates","55.242","25.07","2","62196-2 (Three Phase) , 62196-2 (Three Phase)"
"318","UAE-HBN-CCL177","BUR DUBAI-Emirates Mall-level2 Parking-C8 (Left side)","Emirates Mall, Dubai, United Arab Emirates","55.201","25.117","1","62196-2 (Three Phase)"
"319","UAE-HBN-CCL178","BUR DUBAI-Emirates Mall-level2 Parking-C8 (Middle)","Emirates Mall, Dubai, United Arab Emirates","55.201","25.117","1","62196-2 (Three Phase)"
"320","UAE-HBN-CCL179","BUR DUBAI-Emirates Mall-level2 Parking-C8 (Right side)","Emirates Mall, Dubai, United Arab Emirates","55.201","25.117","1","62196-2 (Three Phase)"
"321","UAE-HBN-CCL180","BUR DUBAI-Emirates Mall-level3 Parking-C6 (Left side)","Emirates Mall, Dubai, United Arab Emirates","55.201","25.117","1","62196-2 (Three Phase)"
"322","UAE-HBN-CCL181","BUR DUBAI-Emirates Mall-level3 Parking-C6 (Middle)","Emirates Mall, Dubai, United Arab Emirates","55.2009166","25.1170555","1","62196-2 (Three Phase)"
"323","UAE-HBN-CCL182","BUR DUBAI-Emirates Mall-level3 Parking-C6 (Right side)","Emirates Mall, Dubai, United Arab Emirates","55.201","25.117","1","62196-2 (Three Phase)"
"324","UAE-HBN-CCL183","BUR DUBAI-Gate Village-01,Basement 3, Parking-K06","DIFC, Dubai, United Arab Emirates","55.2811666","25.214","1","62196-2 (Three Phase)"
"325","UAE-HBN-CCL184","BUR DUBAI-Gate Village-02,Basement 3, Parking-K06","DIFC, Dubai, United Arab Emirates","55.2811666","25.214","1","62196-2 (Three Phase)"
"326","UAE-HBN-CCL185","J.ALI-Golden Mile Galleria 1, Basement2","Palm Jumeirah, Dubai, United Arab Emirates","55.148","25.107","2","62196-2 (Three Phase) , 62196-2 (Three Phase)"
"327","UAE-HBN-CCL186","J.ALI-Club Vista Mare","Palm Jumeirah, Dubai, United Arab Emirates","55.142","25.115","2","62196-2 (Three Phase) , 62196-2 (Three Phase)"
"328","UAE-HBN-CCL187","J ALI-Outlet Village Parking-01 (Left side)","MEERAs, Dubai, United Arab Emirates","55.011","24.912","2","62196-2 (Three Phase) , 62196-2 (Three Phase)"
"329","UAE-HBN-CCL188","J.ALI-Outlet Village Parking-02 (Right side)","MEERAS, Dubai, United Arab Emirates","55.011","24.914","2","62196-2 (Three Phase) , 62196-2 (Three Phase)"
"330","UAE-HBN-CCL189","J.ALI-Golden Mile Galleria 2, Basement2 -01","Palm Jumeirah, Dubai, United Arab Emirates","55.142","25.111","1","62196-2 (Three Phase)"
"331","UAE-HBN-CCL190","J.ALI-Golden Mile Galleria 2, Basement2 -02","Palm Jumeirah, Dubai, United Arab Emirates","55.142","25.111","1","62196-2 (Three Phase)"
"332","UAE-HBN-CCL191","BUR DUBAI-City Walk-2,Basement1-01","Al Wasel, Dubai, United Arab Emirates","55.2641111","25.2070555","1","62196-2 (Three Phase)"
"333","UAE-HBN-CCL192","BUR DUBAI-City Walk-2,Basement1-02","Al Wasel, Dubai, United Arab Emirates","55.264","25.207","1","62196-2 (Three Phase)"
"334","UAE-HBN-CCL193","DEIRA-East Building Parking","DAFZA, Dubai, United Arab Emirates","55.373","25.26","2","62196-2 (Three Phase) , 62196-2 (Three Phase)"
"335","UAE-HBN-CCL194","DEIRA-West Building Parking","DAFZA, Dubai, United Arab Emirates","55.372","25.26","2","62196-2 (Three Phase) , 62196-2 (Three Phase)"
"336","UAE-HBN-CCL195","DEIRA-Head Quarters Parking","DAFZA, Dubai, United Arab Emirates","55.373","25.259","2","62196-2 (Three Phase) , 62196-2 (Three Phase)"
"337","UAE-HBN-CCL196","J.ALI-Ibn Battuta Mall Parking 6","Dubai, United Arab Emirates","55.122","25.048","2","62196-2 (Three Phase) , 62196-2 (Three Phase)"
"338","UAE-HBN-CCL197","J.ALI-Ibn Battuta Mall Parking 3","Dubai, United Arab Emirates","55.118","25.043","2","62196-2 (Three Phase) , 62196-2 (Three Phase)"
"339","UAE-HBN-CCL198","J.ALI-Al Furjan Pavilion","Dubai, United Arab Emirates","55.153","25.025","2","62196-2 (Three Phase) , 62196-2 (Three Phase)"
"340","UAE-HBN-CCL199","J.ALI-Jumeira Island Pavilion","Dubai, United Arab Emirates","55.147","25.064","2","62196-2 (Three Phase) , 62196-2 (Three Phase)"
"341","UAE-HBN-CCL201","BUR DUBAI-Gate Avenue-Parking CD1 - 01","DIFC, Dubai, United Arab Emirates","55.279","25.212","2","62196-2 (Three Phase) , 62196-2 (Three Phase)"
"342","UAE-HBN-CCL203","BUR DUBAI-Dubai Courts","Dubai, United Arab Emirates","55.3209444","25.2488888","2","62196-2 (Three Phase) , 62196-2 (Three Phase)"
"343","UAE-HBN-CCL204","BUR DUBAI-ENOC Petrol Station (1094) Wadi Al Saffa 5","ENOC, Dubai, United Arab Emirates","55.314","25.064","2","Combined ChaDeMo/ComboCCS , 62196-2 (Three Phase)"
"345","UAE-HBN-CCL206","J.ALI-Jafza ONE Tower-Level 3 Parking -Row7","JAFZA, Dubai, United Arab Emirates","55.081","24.964","2","62196-2 (Three Phase) , 62196-2 (Three Phase)"
"346","UAE-HBN-CCL207","J.ALI-Jumeirah Park Pavilion","Dubai, United Arab Emirates","55.159","25.043","2","62196-2 (Three Phase) , 62196-2 (Three Phase)"
"348","UAE-HBN-CCL209","HATTA","ENOC Petrol Station (1047) Hatta, Dubai, United Arab Emirates","56.103","24.833","2","Combined ChaDeMo/ComboCCS , 62196-2 (Three Phase)"
"349","UAE-HBN-CCL210","BUR DUBAI-Dubai Maritime City Head Quarters","Port Rashid, Dubai, United Arab Emirates","55.2655833","25.2620555","2","62196-2 (Three Phase) , 62196-2 (Three Phase)"
"350","UAE-HBN-CCL211","DEIRA-Dragon Mart 1","Dubai, United Arab Emirates","55.4122222","25.1756944","2","62196-2 (Three Phase) , 62196-2 (Three Phase)"
"351","UAE-HBN-CCL212","DEIRA-Dragon Mart 2","Dubai, United Arab Emirates","55.422","25.174","2","62196-2 (Three Phase) , 62196-2 (Three Phase)"
"352","UAE-HBN-CCL213","DEIRA-Dubai Police, Rashidiya Police Station","Dubai, United Arab Emirates","55.385","25.227","2","62196-2 (Three Phase) , 62196-2 (Three Phase)"
"353","UAE-HBN-CCL214","J.ALI-ADNOC Petrol Station, DIP E311","ADNOC, United Arab Emirates","55.1498398","25.0007473","3","Combo CCS , ChaDeMo , 62196-2 (Three Phase)"
